{"type": "FeatureCollection", "features": [ {"type": "Feature", "properties": {"norad_id": 66514, "name": "SENTINEL-6B", "group": "last-30-days", "lat": -30.17591512862916, "lon": 148.32137610225558, "alt_km": 1337.2528427243142, "timestamp": "2025-12-12T07:43:19.257446+00:00", "meta": {"OBJECT_NAME": "SENTINEL-6B", "OBJECT_ID": "2025-264A", "EPOCH": "2025-12-11T20:39:27.129024", "MEAN_MOTION": 12.81479622, "ECCENTRICITY": 0.00078421, "INCLINATION": 66.0381, "RA_OF_ASC_NODE": 164.2643, "ARG_OF_PERICENTER": 269.1464, "MEAN_ANOMALY": 90.8653, "EPHEMERIS_TYPE": 0, "CLASSIFICATION_TYPE": "U", "NORAD_CAT_ID": 66514, "ELEMENT_SET_NO": 999, "REV_AT_EPOCH": 317, "BSTAR": -0.0052959586, "MEAN_MOTION_DOT": -1.291e-05, "MEAN_MOTION_DDOT": 0}, "tle": {"line1": "1 66514U 25264A   25345.86073066 -.00001291  00000+0 -52960-2 0  9994", "line2": "2 66514  66.0381 164.2643 0007842 269.1464  90.8653 12.81479622  3171"}}, "geometry": {"type": "Point", "coordinates": [148.32137610225558, -30.17591512862916]}}, {"type": "Feature", "properties": {"norad_id": 66516, "name": "STARLINK-35924", "group": "last-30-days", "lat": -38.05339854271772, "lon": -0.6146287205905834, "alt_km": 440.3230988695859, "timestamp": "2025-12-12T07:43:19.257457+00:00", "meta": {"OBJECT_NAME": "STARLINK-35924", "OBJECT_ID": "2025-265A", "EPOCH": "2025-12-11T20:00:01.999872", "MEAN_MOTION": 15.44817282, "ECCENTRICITY": 0.00014903, "INCLINATION": 43.0004, "RA_OF_ASC_NODE": 59.3556, "ARG_OF_PERICENTER": 280.0661, "MEAN_ANOMALY": 177.8386, "EPHEMERIS_TYPE": 0, "CLASSIFICATION_TYPE": "U", "NORAD_CAT_ID": 66516, "ELEMENT_SET_NO": 999, "REV_AT_EPOCH": 482, "BSTAR": -0.048394901, "MEAN_MOTION_DOT": -0.02062874, "MEAN_MOTION_DDOT": 0}, "tle": {"line1": "1 66516U 25265A   25345.83335648 -.02062874  00000+0 -48395-1 0  9993", "line2": "2 66516  43.0004  59.3556 0001490 280.0661 177.8386 15.44817282  4823"}}, "geometry": {"type": "Point", "coordinates": [-0.6146287205905834, -38.05339854271772]}}, {"type": "Feature", "properties": {"norad_id": 66517, "name": "STARLINK-35937", "group": "last-30-days", "lat": -24.46078978375537, "lon": 27.24102707431548, "alt_km": 416.7338898683129, "timestamp": "2025-12-12T07:43:19.257468+00:00", "meta": {"OBJECT_NAME": "STARLINK-35937", "OBJECT_ID": "2025-265B", "EPOCH": "2025-12-11T20:00:01.999872", "MEAN_MOTION": 15.50579916, "ECCENTRICITY": 0.00015968, "INCLINATION": 43.0003, "RA_OF_ASC_NODE": 59.3183, "ARG_OF_PERICENTER": 277.4229, "MEAN_ANOMALY": 195.7693, "EPHEMERIS_TYPE": 0, "CLASSIFICATION_TYPE": "U", "NORAD_CAT_ID": 66517, "ELEMENT_SET_NO": 999, "REV_AT_EPOCH": 484, "BSTAR": -0.001179803, "MEAN_MOTION_DOT": -0.00068952, "MEAN_MOTION_DDOT": 0}, "tle": {"line1": "1 66517U 25265B   25345.83335648 -.00068952  00000+0 -11798-2 0  9993", "line2": "2 66517  43.0003  59.3183 0001596 277.4229 195.7693 15.50579916  4844"}}, "geometry": {"type": "Point", "coordinates": [27.24102707431548, -24.46078978375537]}}, {"type": "Feature", "properties": {"norad_id": 66518, "name": "STARLINK-35962", "group": "last-30-days", "lat": -23.30839673171088, "lon": 28.91645529122378, "alt_km": 416.72338655779186, "timestamp": "2025-12-12T07:43:19.257478+00:00", "meta": {"OBJECT_NAME": "STARLINK-35962", "OBJECT_ID": "2025-265C", "EPOCH": "2025-12-11T20:00:01.999872", "MEAN_MOTION": 15.50587487, "ECCENTRICITY": 0.00018025, "INCLINATION": 43.0002, "RA_OF_ASC_NODE": 59.3125, "ARG_OF_PERICENTER": 267.9805, "MEAN_ANOMALY": 207.1242, "EPHEMERIS_TYPE": 0, "CLASSIFICATION_TYPE": "U", "NORAD_CAT_ID": 66518, "ELEMENT_SET_NO": 999, "REV_AT_EPOCH": 484, "BSTAR": -0.0013262398, "MEAN_MOTION_DOT": -0.00077407, "MEAN_MOTION_DDOT": 0}, "tle": {"line1": "1 66518U 25265C   25345.83335648 -.00077407  00000+0 -13262-2 0  9997", "line2": "2 66518  43.0002  59.3125 0001802 267.9805 207.1242 15.50587487  4844"}}, "geometry": {"type": "Point", "coordinates": [28.91645529122378, -23.30839673171088]}}, {"type": "Feature", "properties": {"norad_id": 66519, "name": "STARLINK-35931", "group": "last-30-days", "lat": -22.14591774601812, "lon": 30.553548570435858, "alt_km": 416.69685475872484, "timestamp": "2025-12-12T07:43:19.257488+00:00", "meta": {"OBJECT_NAME": "STARLINK-35931", "OBJECT_ID": "2025-265D", "EPOCH": "2025-12-11T20:00:01.999872", "MEAN_MOTION": 15.50570104, "ECCENTRICITY": 0.00015139, "INCLINATION": 43.0004, "RA_OF_ASC_NODE": 59.3076, "ARG_OF_PERICENTER": 271.0995, "MEAN_ANOMALY": 205.9239, "EPHEMERIS_TYPE": 0, "CLASSIFICATION_TYPE": "U", "NORAD_CAT_ID": 66519, "ELEMENT_SET_NO": 999, "REV_AT_EPOCH": 484, "BSTAR": -0.00081782834, "MEAN_MOTION_DOT": -0.00048011, "MEAN_MOTION_DDOT": 0}, "tle": {"line1": "1 66519U 25265D   25345.83335648 -.00048011  00000+0 -81783-3 0  9991", "line2": "2 66519  43.0004  59.3076 0001513 271.0995 205.9239 15.50570104  4847"}}, "geometry": {"type": "Point", "coordinates": [30.553548570435858, -22.14591774601812]}}, {"type": "Feature", "properties": {"norad_id": 66520, "name": "STARLINK-35952", "group": "last-30-days", "lat": -22.668770241421527, "lon": 29.82258221649237, "alt_km": 424.14124640690534, "timestamp": "2025-12-12T07:43:19.257498+00:00", "meta": {"OBJECT_NAME": "STARLINK-35952", "OBJECT_ID": "2025-265E", "EPOCH": "2025-12-11T20:00:01.999872", "MEAN_MOTION": 15.50141435, "ECCENTRICITY": 0.00014799, "INCLINATION": 43.0002, "RA_OF_ASC_NODE": 59.3022, "ARG_OF_PERICENTER": 276.1059, "MEAN_ANOMALY": 202.728, "EPHEMERIS_TYPE": 0, "CLASSIFICATION_TYPE": "U", "NORAD_CAT_ID": 66520, "ELEMENT_SET_NO": 999, "REV_AT_EPOCH": 484, "BSTAR": -0.040433461, "MEAN_MOTION_DOT": -0.02076534, "MEAN_MOTION_DDOT": 0}, "tle": {"line1": "1 66520U 25265E   25345.83335648 -.02076534  00000+0 -40433-1 0  9991", "line2": "2 66520  43.0002  59.3022 0001479 276.1059 202.7280 15.50141435  4848"}}, "geometry": {"type": "Point", "coordinates": [29.82258221649237, -22.668770241421527]}}, {"type": "Feature", "properties": {"norad_id": 66521, "name": "STARLINK-35915", "group": "last-30-days", "lat": -19.760052871621195, "lon": 33.765314338884146, "alt_km": 416.5141280083735, "timestamp": "2025-12-12T07:43:19.257509+00:00", "meta": {"OBJECT_NAME": "STARLINK-35915", "OBJECT_ID": "2025-265F", "EPOCH": "2025-12-11T20:00:01.999872", "MEAN_MOTION": 15.50582523, "ECCENTRICITY": 0.00017935, "INCLINATION": 43.0003, "RA_OF_ASC_NODE": 59.2976, "ARG_OF_PERICENTER": 268.9374, "MEAN_ANOMALY": 211.9228, "EPHEMERIS_TYPE": 0, "CLASSIFICATION_TYPE": "U", "NORAD_CAT_ID": 66521, "ELEMENT_SET_NO": 999, "REV_AT_EPOCH": 484, "BSTAR": -0.0012165291, "MEAN_MOTION_DOT": -0.00071076, "MEAN_MOTION_DDOT": 0}, "tle": {"line1": "1 66521U 25265F   25345.83335648 -.00071076  00000+0 -12165-2 0  9998", "line2": "2 66521  43.0003  59.2976 0001793 268.9374 211.9228 15.50582523  4846"}}, "geometry": {"type": "Point", "coordinates": [33.765314338884146, -19.760052871621195]}}, {"type": "Feature", "properties": {"norad_id": 66522, "name": "STARLINK-35946", "group": "last-30-days", "lat": -18.59509431049272, "lon": 35.271518391863765, "alt_km": 415.9869792298614, "timestamp": "2025-12-12T07:43:19.257521+00:00", "meta": {"OBJECT_NAME": "STARLINK-35946", "OBJECT_ID": "2025-265G", "EPOCH": "2025-12-11T20:00:01.999872", "MEAN_MOTION": 15.50555756, "ECCENTRICITY": 0.0001983, "INCLINATION": 43.0001, "RA_OF_ASC_NODE": 59.2935, "ARG_OF_PERICENTER": 270.3811, "MEAN_ANOMALY": 212.2331, "EPHEMERIS_TYPE": 0, "CLASSIFICATION_TYPE": "U", "NORAD_CAT_ID": 66522, "ELEMENT_SET_NO": 999, "REV_AT_EPOCH": 484, "BSTAR": 0.001454976, "MEAN_MOTION_DOT": 0.00085887, "MEAN_MOTION_DDOT": 0}, "tle": {"line1": "1 66522U 25265G   25345.83335648  .00085887  00000+0  14550-2 0  9992", "line2": "2 66522  43.0001  59.2935 0001983 270.3811 212.2331 15.50555756  4841"}}, "geometry": {"type": "Point", "coordinates": [35.271518391863765, -18.59509431049272]}}, {"type": "Feature", "properties": {"norad_id": 66523, "name": "STARLINK-35969", "group": "last-30-days", "lat": -17.31406712923408, "lon": 36.88754952974944, "alt_km": 414.94843448799566, "timestamp": "2025-12-12T07:43:19.257532+00:00", "meta": {"OBJECT_NAME": "STARLINK-35969", "OBJECT_ID": "2025-265H", "EPOCH": "2025-12-11T20:00:01.999872", "MEAN_MOTION": 15.50651289, "ECCENTRICITY": 0.00045727, "INCLINATION": 43.0003, "RA_OF_ASC_NODE": 59.2888, "ARG_OF_PERICENTER": 284.9912, "MEAN_ANOMALY": 199.693, "EPHEMERIS_TYPE": 0, "CLASSIFICATION_TYPE": "U", "NORAD_CAT_ID": 66523, "ELEMENT_SET_NO": 999, "REV_AT_EPOCH": 484, "BSTAR": -0.0035347157, "MEAN_MOTION_DOT": -0.00203063, "MEAN_MOTION_DDOT": 0}, "tle": {"line1": "1 66523U 25265H   25345.83335648 -.00203063  00000+0 -35347-2 0  9990", "line2": "2 66523  43.0003  59.2888 0004572 284.9912 199.6930 15.50651289  4842"}}, "geometry": {"type": "Point", "coordinates": [36.88754952974944, -17.31406712923408]}}, {"type": "Feature", "properties": {"norad_id": 66524, "name": "STARLINK-35687", "group": "last-30-days", "lat": -27.29029329780577, "lon": 22.853690069850444, "alt_km": 436.331133415717, "timestamp": "2025-12-12T07:43:19.257542+00:00", "meta": {"OBJECT_NAME": "STARLINK-35687", "OBJECT_ID": "2025-265J", "EPOCH": "2025-12-11T20:00:01.999872", "MEAN_MOTION": 15.4602904, "ECCENTRICITY": 0.00015316, "INCLINATION": 43.0002, "RA_OF_ASC_NODE": 59.3045, "ARG_OF_PERICENTER": 279.3357, "MEAN_ANOMALY": 198.9003, "EPHEMERIS_TYPE": 0, "CLASSIFICATION_TYPE": "U", "NORAD_CAT_ID": 66524, "ELEMENT_SET_NO": 999, "REV_AT_EPOCH": 484, "BSTAR": -0.046520982, "MEAN_MOTION_DOT": -0.02067451, "MEAN_MOTION_DDOT": 0}, "tle": {"line1": "1 66524U 25265J   25345.83335648 -.02067451  00000+0 -46521-1 0  9997", "line2": "2 66524  43.0002  59.3045 0001531 279.3357 198.9003 15.46029040  4843"}}, "geometry": {"type": "Point", "coordinates": [22.853690069850444, -27.29029329780577]}}]}